[{"OBJECT_NAME":"STARLINK-34967","OBJECT_ID":"2025-175D","EPOCH":"2026-03-09T14:27:26.539200","MEAN_MOTION":15.05636344,"ECCENTRICITY":0.0001791,"INCLINATION":97.6027,"RA_OF_ASC_NODE":302.5138,"ARG_OF_PERICENTER":82.5873,"MEAN_ANOMALY":277.5557,"EPHEMERIS_TYPE":0,"CLASSIFICATION_TYPE":"U","NORAD_CAT_ID":65177,"ELEMENT_SET_NO":999,"REV_AT_EPOCH":3262,"BSTAR":-0.00019633,"MEAN_MOTION_DOT":-2.892e-5,"MEAN_MOTION_DDOT":0},{"OBJECT_NAME":"JD 3","OBJECT_ID":"1984-012F","EPOCH":"2026-03-09T20:12:08.260128","MEAN_MOTION":13.88723209,"ECCENTRICITY":0.07313396,"INCLINATION":63.3002,"RA_OF_ASC_NODE":240.1222,"ARG_OF_PERICENTER":124.9076,"MEAN_ANOMALY":242.2952,"EPHEMERIS_TYPE":0,"CLASSIFICATION_TYPE":"U","NORAD_CAT_ID":14795,"ELEMENT_SET_NO":999,"REV_AT_EPOCH":34086,"BSTAR":0.00089007399,"MEAN_MOTION_DOT":0.00010672,"MEAN_MOTION_DDOT":0}]
